ONEWEB-0395             
1 50475U 21132G   24137.80171071  .00000730  00000+0  20228-2 0  9997
2 50475  87.8972 172.5676 0002090  86.1033 274.0334 13.11458336115926
ONEWEB-0396             
1 50476U 21132H   24138.50549225  .00000096  00000+0  21053-3 0  9999
2 50476  87.9120 126.8796 0001820  84.6224 275.5116 13.18687376122650
ONEWEB-0397             
1 50477U 21132J   24137.91270375  .00000102  00000+0  22543-3 0  9994
2 50477  87.9122 126.9987 0001823  83.4147 276.7193 13.18686984121280
ONEWEB-0398             
1 50478U 21132K   24138.15087631  .00000364  00000+0  99011-3 0  9997
2 50478  87.8974 172.4792 0002372  85.6211 274.5188 13.11431824117145
ONEWEB-0399             
1 50479U 21132L   24138.13689681 -.00000141  00000+0 -43427-3 0  9994
2 50479  87.8977 172.4983 0001690  99.1069 261.0250 13.11326632117134
ONEWEB-0400             
1 50480U 21132M   24138.19566599  .00000035  00000+0  55831-4 0  9997
2 50480  87.9117 126.9469 0002219  84.5949 275.5436 13.18686821122597
ONEWEB-0401             
1 50481U 21132N   24138.23833739  .00000095  00000+0  20728-3 0  9998
2 50481  87.9116 126.9360 0001883  95.3243 264.8104 13.18686771122609
ONEWEB-0402             
1 50482U 21132P   24137.67242731  .00000105  00000+0  23419-3 0  9994
2 50482  87.9114 127.0458 0002088 104.8300 255.3063 13.18686851121276
